[
  {
    "nombre": "DEBRIS 03145",
    "pais": "USA",
    "tamano_caida_kg": 20,
    "material_principal": "Aluminio",
    "fecha": "2011-01-18",
    "inclinacion_orbita": 47.92,
    "lugar_caida": { "lat": 45, "lon": -87 },
    "tle1": "1 03145U 68014B   11018.33679383 -.00007350 +60653-5 +00000-0 0  9996",
    "tle2": "2 03145 047.9216 051.8690 9174194 109.4430 352.9566 00.38858306057648",
    "imagen": null
  },
  {
    "nombre": "DEBRIS 03835",
    "pais": "USA",
    "tamano_caida_kg": 18,
    "material_principal": "Titanio",
    "fecha": "2012-03-26",
    "inclinacion_orbita": 81.11,
    "lugar_caida": { "lat": 47, "lon": 95 },
    "tle1": "1 03835U 69029A   12086.76135367  .25198191 -97535-6  25232-3 0  9999",
    "tle2": "2 03835 081.1165 230.5329 0011418 263.0265 097.6822 16.50605120355155",
    "imagen": null
  }
]
